{"type": "FeatureCollection", "features": [ {"type": "Feature", "properties": {"norad_id": 33724, "name": "FENGYUN 1C DEB", "group": "fengyun-1c-debris", "lat": -1.7027339024690116, "lon": -175.56351090233733, "alt_km": 811.1890421990101, "timestamp": "2025-12-20T14:38:02.256568+00:00", "meta": {"OBJECT_NAME": "FENGYUN 1C DEB", "OBJECT_ID": "1999-025DHM", "EPOCH": "2025-12-19T07:23:39.732000", "MEAN_MOTION": 14.19657899, "ECCENTRICITY": 0.0027732, "INCLINATION": 98.6033, "RA_OF_ASC_NODE": 3.4297, "ARG_OF_PERICENTER": 162.7179, "MEAN_ANOMALY": 210.0889, "EPHEMERIS_TYPE": 0, "CLASSIFICATION_TYPE": "U", "NORAD_CAT_ID": 33724, "ELEMENT_SET_NO": 999, "REV_AT_EPOCH": 94055, "BSTAR": 0.00033995, "MEAN_MOTION_DOT": 6.79e-06, "MEAN_MOTION_DDOT": 0}, "tle": {"line1": "1 33724U 99025DHM 25353.30809875  .00000679  00000+0  33995-3 0  9995", "line2": "2 33724  98.6033   3.4297 0027732 162.7179 210.0889 14.19657899940559"}}, "geometry": {"type": "Point", "coordinates": [-175.56351090233733, -1.7027339024690116]}}, {"type": "Feature", "properties": {"norad_id": 33726, "name": "FENGYUN 1C DEB", "group": "fengyun-1c-debris", "lat": 20.796068834781444, "lon": 115.25654653183192, "alt_km": 708.6667270053176, "timestamp": "2025-12-20T14:38:02.256578+00:00", "meta": {"OBJECT_NAME": "FENGYUN 1C DEB", "OBJECT_ID": "1999-025DHP", "EPOCH": "2025-12-18T03:41:23.154144", "MEAN_MOTION": 14.1431231, "ECCENTRICITY": 0.01924925, "INCLINATION": 98.6391, "RA_OF_ASC_NODE": 116.1898, "ARG_OF_PERICENTER": 15.6036, "MEAN_ANOMALY": 107.2674, "EPHEMERIS_TYPE": 0, "CLASSIFICATION_TYPE": "U", "NORAD_CAT_ID": 33726, "ELEMENT_SET_NO": 999, "REV_AT_EPOCH": 92008, "BSTAR": 0.00023538206, "MEAN_MOTION_DOT": 4.94e-06, "MEAN_MOTION_DDOT": 0}, "tle": {"line1": "1 33726U 99025DHP 25352.15374021  .00000494  00000+0  23538-3 0  9996", "line2": "2 33726  98.6391 116.1898 0192492  15.6036 107.2674 14.14312310920087"}}, "geometry": {"type": "Point", "coordinates": [115.25654653183192, 20.796068834781444]}}, {"type": "Feature", "properties": {"norad_id": 33728, "name": "FENGYUN 1C DEB", "group": "fengyun-1c-debris", "lat": 21.1176459797713, "lon": 48.09443192958727, "alt_km": 690.0726732918483, "timestamp": "2025-12-20T14:38:02.256588+00:00", "meta": {"OBJECT_NAME": "FENGYUN 1C DEB", "OBJECT_ID": "1999-025DHR", "EPOCH": "2025-12-19T03:08:31.669440", "MEAN_MOTION": 14.92712258, "ECCENTRICITY": 0.01477777, "INCLINATION": 98.9792, "RA_OF_ASC_NODE": 49.9098, "ARG_OF_PERICENTER": 194.4676, "MEAN_ANOMALY": 165.2288, "EPHEMERIS_TYPE": 0, "CLASSIFICATION_TYPE": "U", "NORAD_CAT_ID": 33728, "ELEMENT_SET_NO": 999, "REV_AT_EPOCH": 98395, "BSTAR": 0.00039692023, "MEAN_MOTION_DOT": 4.984e-05, "MEAN_MOTION_DDOT": 0}, "tle": {"line1": "1 33728U 99025DHR 25353.13092210  .00004984  00000+0  39692-3 0  9990", "line2": "2 33728  98.9792  49.9098 0147777 194.4676 165.2288 14.92712258983955"}}, "geometry": {"type": "Point", "coordinates": [48.09443192958727, 21.1176459797713]}}, {"type": "Feature", "properties": {"norad_id": 33730, "name": "FENGYUN 1C DEB", "group": "fengyun-1c-debris", "lat": -8.086469091035841, "lon": -128.16912807513725, "alt_km": 711.473931666741, "timestamp": "2025-12-20T14:38:02.256598+00:00", "meta": {"OBJECT_NAME": "FENGYUN 1C DEB", "OBJECT_ID": "1999-025DHT", "EPOCH": "2025-12-17T10:18:00.572256", "MEAN_MOTION": 14.63540792, "ECCENTRICITY": 0.00393712, "INCLINATION": 99.0546, "RA_OF_ASC_NODE": 49.6389, "ARG_OF_PERICENTER": 356.5197, "MEAN_ANOMALY": 3.5723, "EPHEMERIS_TYPE": 0, "CLASSIFICATION_TYPE": "U", "NORAD_CAT_ID": 33730, "ELEMENT_SET_NO": 999, "REV_AT_EPOCH": 95748, "BSTAR": 0.0011805307, "MEAN_MOTION_DOT": 6.139e-05, "MEAN_MOTION_DDOT": 0}, "tle": {"line1": "1 33730U 99025DHT 25351.42917329  .00006139  00000+0  11805-2 0  9999", "line2": "2 33730  99.0546  49.6389 0039371 356.5197   3.5723 14.63540792957483"}}, "geometry": {"type": "Point", "coordinates": [-128.16912807513725, -8.086469091035841]}}, {"type": "Feature", "properties": {"norad_id": 33731, "name": "FENGYUN 1C DEB", "group": "fengyun-1c-debris", "lat": -71.6659416017807, "lon": 47.18170355120249, "alt_km": 946.8330835089018, "timestamp": "2025-12-20T14:38:02.256608+00:00", "meta": {"OBJECT_NAME": "FENGYUN 1C DEB", "OBJECT_ID": "1999-025DHU", "EPOCH": "2025-12-14T07:32:51.114336", "MEAN_MOTION": 13.95346461, "ECCENTRICITY": 0.01291818, "INCLINATION": 99.4471, "RA_OF_ASC_NODE": 10.5718, "ARG_OF_PERICENTER": 51.9301, "MEAN_ANOMALY": 309.3431, "EPHEMERIS_TYPE": 0, "CLASSIFICATION_TYPE": "U", "NORAD_CAT_ID": 33731, "ELEMENT_SET_NO": 999, "REV_AT_EPOCH": 90471, "BSTAR": 0.0013457717, "MEAN_MOTION_DOT": 1.908e-05, "MEAN_MOTION_DDOT": 0}, "tle": {"line1": "1 33731U 99025DHU 25348.31448049  .00001908  00000+0  13458-2 0  9997", "line2": "2 33731  99.4471  10.5718 0129181  51.9301 309.3431 13.95346461904712"}}, "geometry": {"type": "Point", "coordinates": [47.18170355120249, -71.6659416017807]}}, {"type": "Feature", "properties": {"norad_id": 33733, "name": "FENGYUN 1C DEB", "group": "fengyun-1c-debris", "lat": -16.662977794428766, "lon": -102.44662244044483, "alt_km": 754.5289257837603, "timestamp": "2025-12-20T14:38:02.256618+00:00", "meta": {"OBJECT_NAME": "FENGYUN 1C DEB", "OBJECT_ID": "1999-025DHW", "EPOCH": "2025-12-14T05:17:42.025920", "MEAN_MOTION": 14.31053637, "ECCENTRICITY": 0.00804283, "INCLINATION": 99.0978, "RA_OF_ASC_NODE": 73.616, "ARG_OF_PERICENTER": 166.2685, "MEAN_ANOMALY": 251.3146, "EPHEMERIS_TYPE": 0, "CLASSIFICATION_TYPE": "U", "NORAD_CAT_ID": 33733, "ELEMENT_SET_NO": 999, "REV_AT_EPOCH": 90469, "BSTAR": 0.0039221093, "MEAN_MOTION_DOT": 0.00010671, "MEAN_MOTION_DDOT": 0}, "tle": {"line1": "1 33733U 99025DHW 25348.22062530  .00010671  00000+0  39221-2 0  9999", "line2": "2 33733  99.0978  73.6160 0080428 166.2685 251.3146 14.31053637904695"}}, "geometry": {"type": "Point", "coordinates": [-102.44662244044483, -16.662977794428766]}}, {"type": "Feature", "properties": {"norad_id": 33737, "name": "FENGYUN 1C DEB", "group": "fengyun-1c-debris", "lat": -42.86457825681981, "lon": -164.30939273414305, "alt_km": 836.7774352925771, "timestamp": "2025-12-20T14:38:02.256629+00:00", "meta": {"OBJECT_NAME": "FENGYUN 1C DEB", "OBJECT_ID": "1999-025DJA", "EPOCH": "2025-12-20T00:10:57.521280", "MEAN_MOTION": 14.03026317, "ECCENTRICITY": 0.01283852, "INCLINATION": 98.3374, "RA_OF_ASC_NODE": 187.3165, "ARG_OF_PERICENTER": 262.4989, "MEAN_ANOMALY": 253.3116, "EPHEMERIS_TYPE": 0, "CLASSIFICATION_TYPE": "U", "NORAD_CAT_ID": 33737, "ELEMENT_SET_NO": 999, "REV_AT_EPOCH": 88842, "BSTAR": 0.0010363535, "MEAN_MOTION_DOT": 1.691e-05, "MEAN_MOTION_DDOT": 0}, "tle": {"line1": "1 33737U 99025DJA 25354.00761020  .00001691  00000+0  10364-2 0  9995", "line2": "2 33737  98.3374 187.3165 0128385 262.4989 253.3116 14.03026317888425"}}, "geometry": {"type": "Point", "coordinates": [-164.30939273414305, -42.86457825681981]}}, {"type": "Feature", "properties": {"norad_id": 33738, "name": "FENGYUN 1C DEB", "group": "fengyun-1c-debris", "lat": 40.536175755424246, "lon": -117.43405738262153, "alt_km": 992.2526095392686, "timestamp": "2025-12-20T14:38:02.256638+00:00", "meta": {"OBJECT_NAME": "FENGYUN 1C DEB", "OBJECT_ID": "1999-025DJB", "EPOCH": "2025-12-19T10:35:57.715008", "MEAN_MOTION": 13.99542452, "ECCENTRICITY": 0.0184532, "INCLINATION": 99.151, "RA_OF_ASC_NODE": 53.475, "ARG_OF_PERICENTER": 3.0137, "MEAN_ANOMALY": 12.1975, "EPHEMERIS_TYPE": 0, "CLASSIFICATION_TYPE": "U", "NORAD_CAT_ID": 33738, "ELEMENT_SET_NO": 999, "REV_AT_EPOCH": 89330, "BSTAR": 0.00041438, "MEAN_MOTION_DOT": 6.55e-06, "MEAN_MOTION_DDOT": 0}, "tle": {"line1": "1 33738U 99025DJB 25353.44164022  .00000655  00000+0  41438-3 0  9998", "line2": "2 33738  99.1510  53.4750 0184532   3.0137  12.1975 13.99542452893304"}}, "geometry": {"type": "Point", "coordinates": [-117.43405738262153, 40.536175755424246]}}, {"type": "Feature", "properties": {"norad_id": 33740, "name": "FENGYUN 1C DEB", "group": "fengyun-1c-debris", "lat": 2.756262363562443, "lon": -172.29965874875606, "alt_km": 853.2643319536055, "timestamp": "2025-12-20T14:38:02.256649+00:00", "meta": {"OBJECT_NAME": "FENGYUN 1C DEB", "OBJECT_ID": "1999-025DJD", "EPOCH": "2025-12-18T07:23:22.108128", "MEAN_MOTION": 14.12325643, "ECCENTRICITY": 0.00021877, "INCLINATION": 98.6868, "RA_OF_ASC_NODE": 5.0478, "ARG_OF_PERICENTER": 119.664, "MEAN_ANOMALY": 240.475, "EPHEMERIS_TYPE": 0, "CLASSIFICATION_TYPE": "U", "NORAD_CAT_ID": 33740, "ELEMENT_SET_NO": 999, "REV_AT_EPOCH": 90225, "BSTAR": 0.00012962131, "MEAN_MOTION_DOT": 1.96e-06, "MEAN_MOTION_DDOT": 0}, "tle": {"line1": "1 33740U 99025DJD 25352.30789477  .00000196  00000+0  12962-3 0  9992", "line2": "2 33740  98.6868   5.0478 0002187 119.6640 240.4750 14.12325643902254"}}, "geometry": {"type": "Point", "coordinates": [-172.29965874875606, 2.756262363562443]}}, {"type": "Feature", "properties": {"norad_id": 33741, "name": "FENGYUN 1C DEB", "group": "fengyun-1c-debris", "lat": 32.33088723562951, "lon": 93.30578063525218, "alt_km": 842.3925024385244, "timestamp": "2025-12-20T14:38:02.256659+00:00", "meta": {"OBJECT_NAME": "FENGYUN 1C DEB", "OBJECT_ID": "1999-025DJE", "EPOCH": "2025-12-18T05:44:40.581312", "MEAN_MOTION": 14.09856563, "ECCENTRICITY": 0.01284041, "INCLINATION": 98.566, "RA_OF_ASC_NODE": 265.5745, "ARG_OF_PERICENTER": 72.7508, "MEAN_ANOMALY": 288.7669, "EPHEMERIS_TYPE": 0, "CLASSIFICATION_TYPE": "U", "NORAD_CAT_ID": 33741, "ELEMENT_SET_NO": 999, "REV_AT_EPOCH": 56940, "BSTAR": 0.0017354254, "MEAN_MOTION_DOT": 3.257e-05, "MEAN_MOTION_DDOT": 0}, "tle": {"line1": "1 33741U 99025DJE 25352.23935858  .00003257  00000+0  17354-2 0  9991", "line2": "2 33741  98.5660 265.5745 0128404  72.7508 288.7669 14.09856563569403"}}, "geometry": {"type": "Point", "coordinates": [93.30578063525218, 32.33088723562951]}}]}